AMC-14                  
1 32708U 08011A   26087.91225360  .00000079  00000+0  00000+0 0  9995
2 32708  23.9120  21.4872 0048337 358.4249 179.6978  1.00332049 67364
DIRECTV 11              
1 32729U 08013A   26090.66257439 -.00000138  00000+0  00000+0 0  9995
2 32729   0.0024 120.5347 0000356 210.0339 357.7860  1.00271882 44817
ICO G1                  
1 32763U 08016A   26090.87777679 -.00000180  00000+0  00000+0 0  9999
2 32763   5.5127  36.2963 0002443 316.5333  59.5524  1.00272855 65774
VINASAT-1               
1 32767U 08018A   26091.49270792 -.00000338  00000+0  00000+0 0  9993
2 32767   0.0209 247.7648 0002525 158.4707  92.9090  1.00270115 65829
STAR ONE C2             
1 32768U 08018B   26091.45370778 -.00000285  00000+0  00000+0 0  9996
2 32768   1.0454  83.1034 0002939 297.7362 267.3093  1.00271928 65887
AMOS-3                  
1 32794U 08022A   26090.75273429 -.00000047  00000+0  00000+0 0  9993
2 32794   0.2563  87.2852 0000855 195.4019 173.2846  1.00273092 81567
GALAXY 18 (G-18)        
1 32951U 08024A   26091.39607223  .00000015  00000+0  00000+0 0  9998
2 32951   0.0188 224.8127 0003050 156.0809 188.4290  1.00272821 45084
ZHONGXING-9             
1 33051U 08028A   26091.48490791 -.00000258  00000+0  00000+0 0  9994
2 33051   0.5733  86.3316 0007730 260.8561 109.6059  1.00272492 65271
SKYNET 5C               
1 33055U 08030A   26091.39174086 -.00000147  00000+0  00000+0 0  9994
2 33055   3.5935  77.9321 0005445 306.3470 288.6892  1.00271807 65182
TURKSAT 3A              
1 33056U 08030B   26090.61924086  .00000133  00000+0  00000+0 0  9996
2 33056   0.0449  70.2310 0005211 323.7368  59.9266  1.00274068 51573
INTELSAT 25 (IS-25)     
1 33153U 08034A   26091.38905419 -.00000232  00000+0  00000+0 0  9993
2 33153   2.5102  81.2304 0003217 245.3241 331.7586  1.00271842 64928
ECHOSTAR 11             
1 33207U 08035A   26091.44415463 -.00000067  00000+0  00000+0 0  9992
2 33207   0.8071  84.9968 0002811 260.4880 254.4071  1.00273180 50445
SUPERBIRD-C2            
1 33274U 08038A   26091.49357459 -.00000314  00000+0  00000+0 0  9999
2 33274   2.1640  82.2074 0003030 358.5397  62.8020  1.00270560104962
INMARSAT 4-F3           
1 33278U 08039A   26090.64294373 -.00000150  00000+0  00000+0 0  9993
2 33278   4.2269  31.3238 0002766 346.8445 304.3018  1.00272236 45767
NIMIQ 4                 
1 33373U 08044A   26091.11989106 -.00000231  00000+0  00000+0 0  9993
2 33373   0.0262 113.5982 0002329 261.4463 135.5907  1.00270460 64215
GALAXY 19 (G-19)        
1 33376U 08045A   26088.02467122 -.00000159  00000+0  00000+0 0  9991
2 33376   0.0170 235.4768 0002779 127.6327  95.2014  1.00271910 64091
ASTRA 1M                
1 33436U 08057A   26091.32778060  .00000110  00000+0  00000+0 0  9990
2 33436   0.1016  74.3741 0002533 352.0694 260.6093  1.00270481 44969
