[{"OBJECT_NAME":"AMC-14","OBJECT_ID":"2008-011A","EPOCH":"2026-03-28T21:53:38.711040","MEAN_MOTION":1.00332049,"ECCENTRICITY":0.0048337,"INCLINATION":23.912,"RA_OF_ASC_NODE":21.4872,"ARG_OF_PERICENTER":358.4249,"MEAN_ANOMALY":179.6978,"EPHEMERIS_TYPE":0,"CLASSIFICATION_TYPE":"U","NORAD_CAT_ID":32708,"ELEMENT_SET_NO":999,"REV_AT_EPOCH":6736,"BSTAR":0,"MEAN_MOTION_DOT":7.9e-7,"MEAN_MOTION_DDOT":0},{"OBJECT_NAME":"DIRECTV 11","OBJECT_ID":"2008-013A","EPOCH":"2026-03-31T15:54:06.427296","MEAN_MOTION":1.00271882,"ECCENTRICITY":3.565e-5,"INCLINATION":0.0024,"RA_OF_ASC_NODE":120.5347,"ARG_OF_PERICENTER":210.0339,"MEAN_ANOMALY":357.786,"EPHEMERIS_TYPE":0,"CLASSIFICATION_TYPE":"U","NORAD_CAT_ID":32729,"ELEMENT_SET_NO":999,"REV_AT_EPOCH":4481,"BSTAR":0,"MEAN_MOTION_DOT":-1.38e-6,"MEAN_MOTION_DDOT":0},{"OBJECT_NAME":"ICO G1","OBJECT_ID":"2008-016A","EPOCH":"2026-03-31T21:03:59.914656","MEAN_MOTION":1.00272855,"ECCENTRICITY":0.00024432,"INCLINATION":5.5127,"RA_OF_ASC_NODE":36.2963,"ARG_OF_PERICENTER":316.5333,"MEAN_ANOMALY":59.5524,"EPHEMERIS_TYPE":0,"CLASSIFICATION_TYPE":"U","NORAD_CAT_ID":32763,"ELEMENT_SET_NO":999,"REV_AT_EPOCH":6577,"BSTAR":0,"MEAN_MOTION_DOT":-1.8e-6,"MEAN_MOTION_DDOT":0},{"OBJECT_NAME":"VINASAT-1","OBJECT_ID":"2008-018A","EPOCH":"2026-04-01T11:49:29.964288","MEAN_MOTION":1.00270115,"ECCENTRICITY":0.0002525,"INCLINATION":0.0209,"RA_OF_ASC_NODE":247.7648,"ARG_OF_PERICENTER":158.4707,"MEAN_ANOMALY":92.909,"EPHEMERIS_TYPE":0,"CLASSIFICATION_TYPE":"U","NORAD_CAT_ID":32767,"ELEMENT_SET_NO":999,"REV_AT_EPOCH":6582,"BSTAR":0,"MEAN_MOTION_DOT":-3.38e-6,"MEAN_MOTION_DDOT":0},{"OBJECT_NAME":"STAR ONE C2","OBJECT_ID":"2008-018B","EPOCH":"2026-04-01T10:53:20.352192","MEAN_MOTION":1.00271928,"ECCENTRICITY":0.0002939,"INCLINATION":1.0454,"RA_OF_ASC_NODE":83.1034,"ARG_OF_PERICENTER":297.7362,"MEAN_ANOMALY":267.3093,"EPHEMERIS_TYPE":0,"CLASSIFICATION_TYPE":"U","NORAD_CAT_ID":32768,"ELEMENT_SET_NO":999,"REV_AT_EPOCH":6588,"BSTAR":0,"MEAN_MOTION_DOT":-2.85e-6,"MEAN_MOTION_DDOT":0},{"OBJECT_NAME":"AMOS-3","OBJECT_ID":"2008-022A","EPOCH":"2026-03-31T18:03:56.242656","MEAN_MOTION":1.00273092,"ECCENTRICITY":8.557e-5,"INCLINATION":0.2563,"RA_OF_ASC_NODE":87.2852,"ARG_OF_PERICENTER":195.4019,"MEAN_ANOMALY":173.2846,"EPHEMERIS_TYPE":0,"CLASSIFICATION_TYPE":"U","NORAD_CAT_ID":32794,"ELEMENT_SET_NO":999,"REV_AT_EPOCH":8156,"BSTAR":0,"MEAN_MOTION_DOT":-4.7e-7,"MEAN_MOTION_DDOT":0},{"OBJECT_NAME":"GALAXY 18 (G-18)","OBJECT_ID":"2008-024A","EPOCH":"2026-04-01T09:30:20.640672","MEAN_MOTION":1.00272821,"ECCENTRICITY":0.000305,"INCLINATION":0.0188,"RA_OF_ASC_NODE":224.8127,"ARG_OF_PERICENTER":156.0809,"MEAN_ANOMALY":188.429,"EPHEMERIS_TYPE":0,"CLASSIFICATION_TYPE":"U","NORAD_CAT_ID":32951,"ELEMENT_SET_NO":999,"REV_AT_EPOCH":4508,"BSTAR":0,"MEAN_MOTION_DOT":1.5e-7,"MEAN_MOTION_DDOT":0},{"OBJECT_NAME":"ZHONGXING-9","OBJECT_ID":"2008-028A","EPOCH":"2026-04-01T11:38:16.043424","MEAN_MOTION":1.00272492,"ECCENTRICITY":0.000773,"INCLINATION":0.5733,"RA_OF_ASC_NODE":86.3316,"ARG_OF_PERICENTER":260.8561,"MEAN_ANOMALY":109.6059,"EPHEMERIS_TYPE":0,"CLASSIFICATION_TYPE":"U","NORAD_CAT_ID":33051,"ELEMENT_SET_NO":999,"REV_AT_EPOCH":6527,"BSTAR":0,"MEAN_MOTION_DOT":-2.58e-6,"MEAN_MOTION_DDOT":0},{"OBJECT_NAME":"SKYNET 5C","OBJECT_ID":"2008-030A","EPOCH":"2026-04-01T09:24:06.410304","MEAN_MOTION":1.00271807,"ECCENTRICITY":0.0005445,"INCLINATION":3.5935,"RA_OF_ASC_NODE":77.9321,"ARG_OF_PERICENTER":306.347,"MEAN_ANOMALY":288.6892,"EPHEMERIS_TYPE":0,"CLASSIFICATION_TYPE":"U","NORAD_CAT_ID":33055,"ELEMENT_SET_NO":999,"REV_AT_EPOCH":6518,"BSTAR":0,"MEAN_MOTION_DOT":-1.47e-6,"MEAN_MOTION_DDOT":0},{"OBJECT_NAME":"TURKSAT 3A","OBJECT_ID":"2008-030B","EPOCH":"2026-03-31T14:51:42.410304","MEAN_MOTION":1.00274068,"ECCENTRICITY":0.0005211,"INCLINATION":0.0449,"RA_OF_ASC_NODE":70.231,"ARG_OF_PERICENTER":323.7368,"MEAN_ANOMALY":59.9266,"EPHEMERIS_TYPE":0,"CLASSIFICATION_TYPE":"U","NORAD_CAT_ID":33056,"ELEMENT_SET_NO":999,"REV_AT_EPOCH":5157,"BSTAR":0,"MEAN_MOTION_DOT":1.33e-6,"MEAN_MOTION_DDOT":0},{"OBJECT_NAME":"INTELSAT 25 (IS-25)","OBJECT_ID":"2008-034A","EPOCH":"2026-04-01T09:20:14.282016","MEAN_MOTION":1.00271842,"ECCENTRICITY":0.0003217,"INCLINATION":2.5102,"RA_OF_ASC_NODE":81.2304,"ARG_OF_PERICENTER":245.3241,"MEAN_ANOMALY":331.7586,"EPHEMERIS_TYPE":0,"CLASSIFICATION_TYPE":"U","NORAD_CAT_ID":33153,"ELEMENT_SET_NO":999,"REV_AT_EPOCH":6492,"BSTAR":0,"MEAN_MOTION_DOT":-2.32e-6,"MEAN_MOTION_DDOT":0},{"OBJECT_NAME":"ECHOSTAR 11","OBJECT_ID":"2008-035A","EPOCH":"2026-04-01T10:39:34.960032","MEAN_MOTION":1.0027318,"ECCENTRICITY":0.0002811,"INCLINATION":0.8071,"RA_OF_ASC_NODE":84.9968,"ARG_OF_PERICENTER":260.488,"MEAN_ANOMALY":254.4071,"EPHEMERIS_TYPE":0,"CLASSIFICATION_TYPE":"U","NORAD_CAT_ID":33207,"ELEMENT_SET_NO":999,"REV_AT_EPOCH":5044,"BSTAR":0,"MEAN_MOTION_DOT":-6.7e-7,"MEAN_MOTION_DDOT":0},{"OBJECT_NAME":"SUPERBIRD-C2","OBJECT_ID":"2008-038A","EPOCH":"2026-04-01T11:50:44.844576","MEAN_MOTION":1.0027056,"ECCENTRICITY":0.000303,"INCLINATION":2.164,"RA_OF_ASC_NODE":82.2074,"ARG_OF_PERICENTER":358.5397,"MEAN_ANOMALY":62.802,"EPHEMERIS_TYPE":0,"CLASSIFICATION_TYPE":"U","NORAD_CAT_ID":33274,"ELEMENT_SET_NO":999,"REV_AT_EPOCH":10496,"BSTAR":0,"MEAN_MOTION_DOT":-3.14e-6,"MEAN_MOTION_DDOT":0},{"OBJECT_NAME":"INMARSAT 4-F3","OBJECT_ID":"2008-039A","EPOCH":"2026-03-31T15:25:50.338272","MEAN_MOTION":1.00272236,"ECCENTRICITY":0.0002766,"INCLINATION":4.2269,"RA_OF_ASC_NODE":31.3238,"ARG_OF_PERICENTER":346.8445,"MEAN_ANOMALY":304.3018,"EPHEMERIS_TYPE":0,"CLASSIFICATION_TYPE":"U","NORAD_CAT_ID":33278,"ELEMENT_SET_NO":999,"REV_AT_EPOCH":4576,"BSTAR":0,"MEAN_MOTION_DOT":-1.5e-6,"MEAN_MOTION_DDOT":0},{"OBJECT_NAME":"NIMIQ 4","OBJECT_ID":"2008-044A","EPOCH":"2026-04-01T02:52:38.587584","MEAN_MOTION":1.0027046,"ECCENTRICITY":0.0002329,"INCLINATION":0.0262,"RA_OF_ASC_NODE":113.5982,"ARG_OF_PERICENTER":261.4463,"MEAN_ANOMALY":135.5907,"EPHEMERIS_TYPE":0,"CLASSIFICATION_TYPE":"U","NORAD_CAT_ID":33373,"ELEMENT_SET_NO":999,"REV_AT_EPOCH":6421,"BSTAR":0,"MEAN_MOTION_DOT":-2.31e-6,"MEAN_MOTION_DDOT":0},{"OBJECT_NAME":"GALAXY 19 (G-19)","OBJECT_ID":"2008-045A","EPOCH":"2026-03-29T00:35:31.593408","MEAN_MOTION":1.0027191,"ECCENTRICITY":0.0002779,"INCLINATION":0.017,"RA_OF_ASC_NODE":235.4768,"ARG_OF_PERICENTER":127.6327,"MEAN_ANOMALY":95.2014,"EPHEMERIS_TYPE":0,"CLASSIFICATION_TYPE":"U","NORAD_CAT_ID":33376,"ELEMENT_SET_NO":999,"REV_AT_EPOCH":6409,"BSTAR":0,"MEAN_MOTION_DOT":-1.59e-6,"MEAN_MOTION_DDOT":0},{"OBJECT_NAME":"ASTRA 1M","OBJECT_ID":"2008-057A","EPOCH":"2026-04-01T07:52:00.243840","MEAN_MOTION":1.00270481,"ECCENTRICITY":0.0002533,"INCLINATION":0.1016,"RA_OF_ASC_NODE":74.3741,"ARG_OF_PERICENTER":352.0694,"MEAN_ANOMALY":260.6093,"EPHEMERIS_TYPE":0,"CLASSIFICATION_TYPE":"U","NORAD_CAT_ID":33436,"ELEMENT_SET_NO":999,"REV_AT_EPOCH":4496,"BSTAR":0,"MEAN_MOTION_DOT":1.1e-6,"MEAN_MOTION_DDOT":0}]
